NORAD_CAT_ID,OBJECT_NAME,OBJECT_TYPE,EPOCH,MEAN_MOTION,ECCENTRICITY,INCLINATION,RA_OF_ASC_NODE,ARG_OF_PERICENTER,MEAN_ANOMALY,BSTAR,MEAN_MOTION_DOT,MEAN_MOTION_DDOT,TLE_LINE0,TLE_LINE1,TLE_LINE2,SEMIMAJOR_AXIS,PERIOD,APOGEE,PERIGEE,DECAYED
53166.0,STARLINK-4110,PAYLOAD,2023-04-12 03:17:16,15.08837608,0.0001151,53.2146,254.1019,92.0331,268.0793,6.7856e-06,-1.8e-06,0.0,0 STARLINK-4110,1 53166U 22083AL  23102.13699673 -.00000180  00000-0  67856-5 0  9995,2 53166  53.2146 254.1019 0001151  92.0331 268.0793 15.08837608 41581,6917.888,95.438,540.549,538.956,0.0
53166.0,STARLINK-4110,PAYLOAD,2023-04-12 09:38:48,15.08839881,0.0001032,53.2145,252.9104,89.9492,270.1618,-6.7202e-05,-1.357e-05,0.0,0 STARLINK-4110,1 53166U 22083AL  23102.40195540 -.00001357  00000-0 -67202-4 0  9991,2 53166  53.2145 252.9104 0001032  89.9492 270.1618 15.08839881 40991,6917.881,95.438,540.46,539.032,0.0
53166.0,STARLINK-4110,PAYLOAD,2023-04-13 03:08:03,15.08833223,1.93e-05,53.2161,249.6414,281.5232,78.5738,-0.00018024,-3.154e-05,0.0,0 STARLINK-4110,1 53166U 22083AL  23103.13059444 -.00003154  00000-0 -18024-3 0  9998,2 53166  53.2161 249.6414 0000193 281.5232  78.5738 15.08833223 41106,6917.901,95.438,539.9,539.633,0.0
53166.0,STARLINK-4110,PAYLOAD,2023-04-14 02:58:50,15.08841418,9.89e-05,53.2138,245.1822,62.8649,297.2444,0.00014009,1.943e-05,0.0,0 STARLINK-4110,1 53166U 22083AL  23104.12419685  .00001943  00000-0  14009-3 0  9996,2 53166  53.2138 245.1822 0000989  62.8649 297.2444 15.08841418 41883,6917.876,95.437,540.425,539.057,0.0
53166.0,STARLINK-4110,PAYLOAD,2023-04-14 12:31:09,15.08839759,0.0001296,53.2154,243.3974,74.3571,285.7564,6.0378e-05,6.73e-06,0.0,0 STARLINK-4110,1 53166U 22083AL  23104.52163966  .00000673  00000-0  60378-4 0  9998,2 53166  53.2154 243.3974 0001296  74.3571 285.7564 15.08839759 41311,6917.881,95.438,540.643,538.85,0.0
53166.0,STARLINK-4110,PAYLOAD,2023-04-14 20:28:04,15.08854929,0.0001232,53.2129,241.9096,67.7957,292.3165,0.00026885,3.995e-05,0.0,0 STARLINK-4110,1 53166U 22083AL  23104.85282985  .00003995  00000-0  26885-3 0  9991,2 53166  53.2129 241.9096 0001232  67.7957 292.3165 15.08854929 41997,6917.835,95.437,540.552,538.847,0.0
53166.0,STARLINK-4110,PAYLOAD,2023-04-15 13:57:18,15.08858559,0.0001174,53.2148,238.6401,72.5014,287.6107,0.00032765,4.933e-05,0.0,0 STARLINK-4110,1 53166U 22083AL  23105.58146918  .00004933  00000-0  32765-3 0  9994,2 53166  53.2148 238.6401 0001174  72.5014 287.6107 15.08858559 41473,6917.824,95.436,540.501,538.877,0.0
53166.0,STARLINK-4110,PAYLOAD,2023-04-15 18:43:27,15.08866932,0.0001061,53.2138,237.7445,88.3362,271.7752,0.00038525,5.853e-05,0.0,0 STARLINK-4110,1 53166U 22083AL  23105.78018176  .00005853  00000-0  38525-3 0  9992,2 53166  53.2138 237.7445 0001061  88.3362 271.7752 15.08866932 42134,6917.798,95.436,540.397,538.929,0.0
53166.0,STARLINK-4110,PAYLOAD,2023-04-16 12:12:43,15.08829889,0.0001336,53.2141,234.4734,108.9665,251.1472,-9.5816e-05,-1.812e-05,0.0,0 STARLINK-4110,1 53166U 22083AL  23106.50884256 -.00001812  00000-0 -95816-4 0  9993,2 53166  53.2141 234.4734 0001336 108.9665 251.1472 15.08829889 42246,6917.911,95.438,540.701,538.852,0.0
53166.0,STARLINK-4110,PAYLOAD,2023-04-16 13:48:07,15.08830616,0.0001271,53.2145,234.1764,106.0766,254.0366,-7.5092e-05,-1.482e-05,0.0,0 STARLINK-4110,1 53166U 22083AL  23106.57508330 -.00001482  00000-0 -75092-4 0  9993,2 53166  53.2145 234.1764 0001271 106.0766 254.0366 15.08830616 41624,6917.909,95.438,540.653,538.895,0.0
53166.0,STARLINK-4110,PAYLOAD,2023-04-16 16:58:53,15.08833279,0.0001243,53.2149,233.5816,104.7276,255.3854,-0.00010294,-1.925e-05,0.0,0 STARLINK-4110,1 53166U 22083AL  23106.70755969 -.00001925  00000-0 -10294-3 0  9994,2 53166  53.2149 233.5816 0001243 104.7276 255.3854 15.08833279 41645,6917.901,95.438,540.626,538.906,0.0
53166.0,STARLINK-4110,PAYLOAD,2023-04-17 12:03:31,15.0884119,0.0001374,53.2168,230.0151,109.9541,250.16,0.00057425,8.863e-05,0.0,0 STARLINK-4110,1 53166U 22083AL  23107.50244410  .00008863  00000-0  57425-3 0  9990,2 53166  53.2168 230.0151 0001374 109.9541 250.1600 15.08841190 42393,6917.877,95.437,540.692,538.791,0.0
53166.0,STARLINK-4110,PAYLOAD,2023-04-17 13:38:54,15.08843897,0.000139,53.2168,229.7177,109.9785,250.1357,0.00070815,0.00011001,0.0,0 STARLINK-4110,1 53166U 22083AL  23107.56868419  .00011001  00000-0  70815-3 0  9993,2 53166  53.2168 229.7177 0001390 109.9785 250.1357 15.08843897 41770,6917.868,95.437,540.695,538.772,0.0
53166.0,STARLINK-4110,PAYLOAD,2023-04-18 07:08:08,15.08842706,0.0001388,53.217,226.4479,104.9008,255.2138,0.00023214,3.409e-05,0.0,0 STARLINK-4110,1 53166U 22083AL  23108.29732421  .00003409  00000-0  23214-3 0  9991,2 53166  53.2170 226.4479 0001388 104.9008 255.2138 15.08842706 41885,6917.872,95.437,540.697,538.777,0.0
53166.0,STARLINK-4110,PAYLOAD,2023-04-18 15:05:04,15.08842759,0.0001267,53.2174,224.9613,104.3274,255.7859,0.00020935,3.046e-05,0.0,0 STARLINK-4110,1 53166U 22083AL  23108.62852419  .00003046  00000-0  20935-3 0  9992,2 53166  53.2174 224.9613 0001267 104.3274 255.7859 15.08842759 41936,6917.872,95.437,540.613,538.86,0.0
53166.0,STARLINK-4110,PAYLOAD,2023-04-19 08:34:19,15.08838096,0.0001125,53.2171,221.6898,94.6385,265.4736,3.2945e-05,2.37e-06,0.0,0 STARLINK-4110,1 53166U 22083AL  23109.35716520  .00000237  00000-0  32945-4 0  9999,2 53166  53.2171 221.6898 0001125  94.6385 265.4736 15.08838096 42043,6917.886,95.438,540.529,538.973,0.0
53166.0,STARLINK-4110,PAYLOAD,2023-04-19 14:55:51,15.08846562,0.0001159,53.2164,220.5,79.6624,280.4499,0.00017138,2.441e-05,0.0,0 STARLINK-4110,1 53166U 22083AL  23109.62212207  .00002441  00000-0  17138-3 0  9997,2 53166  53.2164 220.5000 0001159  79.6624 280.4499 15.08846562 42088,6917.86,95.437,540.527,538.924,0.0
53166.0,STARLINK-4110,PAYLOAD,2023-04-20 06:49:42,15.08842223,0.0001149,53.2169,217.5276,86.5754,273.537,0.00012117,1.641e-05,0.0,0 STARLINK-4110,1 53166U 22083AL  23110.28452413  .00001641  00000-0  12117-3 0  9999,2 53166  53.2169 217.5276 0001149  86.5754 273.5370 15.08842223 42186,6917.874,95.437,540.533,538.944,0.0
53166.0,STARLINK-4110,PAYLOAD,2023-04-20 13:11:15,15.08840202,0.0001217,53.2161,216.3366,97.7545,262.3586,6.6172e-05,7.65e-06,0.0,0 STARLINK-4110,1 53166U 22083AL  23110.54948387  .00000765  00000-0  66172-4 0  9995,2 53166  53.2161 216.3366 0001217  97.7545 262.3586 15.08840202 42857,6917.88,95.438,540.587,538.903,0.0
53166.0,STARLINK-4110,PAYLOAD,2023-04-20 14:46:38,15.08844733,0.0001236,53.2166,216.0398,76.7702,283.3428,0.00014391,2.003e-05,0.0,0 STARLINK-4110,1 53166U 22083AL  23110.61572362  .00002003  00000-0  14391-3 0  9991,2 53166  53.2166 216.0398 0001236  76.7702 283.3428 15.08844733 42230,6917.866,95.437,540.586,538.876,0.0
53166.0,STARLINK-4110,PAYLOAD,2023-04-21 13:02:02,15.08838179,0.0001176,53.2149,211.875,98.4236,261.6889,0.0001275,1.742e-05,0.0,0 STARLINK-4110,1 53166U 22083AL  23111.54308787  .00001742  00000-0  12750-3 0  9998,2 53166  53.2149 211.8750 0001176  98.4236 261.6889 15.08838179 42374,6917.886,95.438,540.564,538.937,0.0
53166.0,STARLINK-4110,PAYLOAD,2023-04-21 16:12:48,15.08841289,0.0001228,53.2155,211.2801,101.4692,258.6438,0.00015129,2.121e-05,0.0,0 STARLINK-4110,1 53166U 22083AL  23111.67556700  .00002121  00000-0  15129-3 0  9997,2 53166  53.2155 211.2801 0001228 101.4692 258.6438 15.08841289 43026,6917.876,95.437,540.591,538.892,0.0
53166.0,STARLINK-4110,PAYLOAD,2023-04-22 17:38:58,15.08856082,0.0001454,53.2154,206.5239,69.9513,290.1636,0.00043158,6.59e-05,0.0,0 STARLINK-4110,1 53166U 22083AL  23112.73540277  .00006590  00000-0  43158-3 0  9994,2 53166  53.2154 206.5239 0001454  69.9513 290.1636 15.08856082 43183,6917.831,95.437,540.702,538.69,0.0
53166.0,STARLINK-4110,PAYLOAD,2023-04-23 17:29:45,15.08839609,0.0002712,53.2156,202.0671,221.4096,138.6691,-4.6616e-05,-1.03e-05,0.0,0 STARLINK-4110,1 53166U 22083AL  23113.72899606 -.00001030  00000-0 -46616-4 0  9996,2 53166  53.2156 202.0671 0002712 221.4096 138.6691 15.08839609 42705,6917.882,95.438,541.623,537.87,0.0
53166.0,STARLINK-4110,PAYLOAD,2023-04-24 06:12:50,15.08877771,0.0001142,53.2154,199.6824,101.4953,258.6167,0.00079148,0.00012344,0.0,0 STARLINK-4110,1 53166U 22083AL  23114.25891903  .00012344  00000-0  79148-3 0  9990,2 53166  53.2154 199.6824 0001142 101.4953 258.6167 15.08877771 43411,6917.765,95.435,540.42,538.84,0.0
53166.0,STARLINK-4110,PAYLOAD,2023-04-24 22:06:41,15.08834707,0.0001661,53.2163,196.7108,91.457,268.6612,-0.00039052,-6.497e-05,0.0,0 STARLINK-4110,1 53166U 22083AL  23114.92131852 -.00006497  00000-0 -39052-3 0  9998,2 53166  53.2163 196.7108 0001661  91.4570 268.6612 15.08834707 43512,6917.897,95.438,540.911,538.613,0.0
53166.0,STARLINK-4110,PAYLOAD,2023-04-25 10:49:47,15.08814027,0.0001418,53.2152,194.3271,60.8161,299.2973,-0.00092512,-0.0001497,0.0,0 STARLINK-4110,1 53166U 22083AL  23115.45124739 -.00014970  00000-0 -92512-3 0  9998,2 53166  53.2152 194.3271 0001418  60.8161 299.2973 15.08814027 42962,6917.96,95.439,540.806,538.844,0.0
53166.0,STARLINK-4110,PAYLOAD,2023-04-26 12:15:59,15.08823794,0.0001365,53.2141,189.5743,56.2343,303.8779,0.0010215,0.00015999,0.0,0 STARLINK-4110,1 53166U 22083AL  23116.51110877  .00015999  00000-0  10215-2 0  9993,2 53166  53.2141 189.5743 0001365  56.2343 303.8779 15.08823794 43128,6917.93,95.439,540.739,538.851,0.0
53166.0,STARLINK-4110,PAYLOAD,2023-04-26 21:48:18,15.08837901,0.000137,53.2138,187.7891,56.2831,303.8292,0.0010694,0.00016771,0.0,0 STARLINK-4110,1 53166U 22083AL  23116.90855052  .00016771  00000-0  10694-2 0  9997,2 53166  53.2138 187.7891 0001370  56.2831 303.8292 15.08837901 43187,6917.887,95.438,540.7,538.804,0.0
53166.0,STARLINK-4110,PAYLOAD,2023-04-27 12:06:46,15.08858532,0.0001358,53.2138,185.1128,56.2527,303.8595,0.0011095,0.00017423,0.0,0 STARLINK-4110,1 53166U 22083AL  23117.50470674  .00017423  00000-0  11095-2 0  9998,2 53166  53.2138 185.1128 0001358  56.2527 303.8595 15.08858532 43279,6917.824,95.436,540.628,538.749,0.0
